[{"OBJECT_NAME":"IRIDE FM3","OBJECT_ID":"2025-276AH","EPOCH":"2026-03-09T16:50:39.561792","MEAN_MOTION":15.19640747,"ECCENTRICITY":6.614e-5,"INCLINATION":97.4248,"RA_OF_ASC_NODE":144.0388,"ARG_OF_PERICENTER":25.5203,"MEAN_ANOMALY":334.6065,"EPHEMERIS_TYPE":0,"CLASSIFICATION_TYPE":"U","NORAD_CAT_ID":66697,"ELEMENT_SET_NO":999,"REV_AT_EPOCH":1532,"BSTAR":0.00053468089,"MEAN_MOTION_DOT":0.00011338,"MEAN_MOTION_DDOT":0},{"OBJECT_NAME":"FLOCK 4H-32","OBJECT_ID":"2025-276BX","EPOCH":"2026-03-09T18:22:10.372512","MEAN_MOTION":15.18499661,"ECCENTRICITY":0.00045335,"INCLINATION":97.429,"RA_OF_ASC_NODE":144.0078,"ARG_OF_PERICENTER":12.8699,"MEAN_ANOMALY":347.265,"EPHEMERIS_TYPE":0,"CLASSIFICATION_TYPE":"U","NORAD_CAT_ID":66735,"ELEMENT_SET_NO":999,"REV_AT_EPOCH":1532,"BSTAR":0.00039604873,"MEAN_MOTION_DOT":8.106e-5,"MEAN_MOTION_DDOT":0}]
